#dP2019  5 28  0  0  0.00000000      96 __u+U ITR00 FIT  IAC
## 2055 172800.00000000   900.00000000 58631 0.0000000000000
+   98   C01C02C03C04C05C06C07C08C09C10C11C12C13C14C16E01E02
+        E03E04E05E07E08E09E11E12E13E14E15E18E19E21E24E25E26
+        E27E30E31E33E36G01G02G03G04G05G06G07G08G09G10G11G12
+        G13G14G15G16G17G18G19G20G21G22G23G24G25G26G27G28G29
+        G30G31G32J01J02J03J07R01R02R03R04R05R07R08R09R10R11
+        R13R14R15R16R17R18R19R20R21R22R23R24R26  0  0  0  0
++        13  0 13 13 13  9  9  9  9  8  8  7  8  8  8  5  5
++         5  4  5  5  5  4  4  5  5  5  5  4  5  5  5  5  5
++         5  5  5  5  5  3  3  3  4  3  3  3  3  3  3  3  3
++         3  3  3  3  3  3  3  3  3  3  3  3  3  3  3  3  3
++         3  3  3  8  9  8 15  6  6  5  5  5  5  6  5  6  5
++         6  5  5  6  5  5  6  6  5  5  5  6  8  0  0  0  0
%c M  cc GPS ccc cccc cccc cccc cccc ccccc ccccc ccccc ccccc
%c cc cc ccc ccc cccc cccc cccc cccc ccccc ccccc ccccc ccccc
%f  0.0000000  0.000000000  0.00000000000  0.000000000000000
%f  0.0000000  0.000000000  0.00000000000  0.000000000000000
%i    0    0    0    0      0      0      0      0         0
%i    0    0    0    0      0      0      0      0         0
/* INFORMATION & ANALYSIS CENTER (IAC) OF MCC   (RAPID DATA)
/* S/V CLOCKS ARE ALIGNED TO GPS & GLONASS TIME RESPECTIVELY
/* USING THE BROADCAST EPHEMERIS                            
/* PCV:IGS14_2045 OL/AL:FES2004  NONE     YN ORB:CoN CLK:CoN
*  2019 05 28 20  0  0.00000000
PC01 -32271.735420  27157.670260   -520.426384    642.605735
PC02      0.000000      0.000000      0.000000 999999.999999
PC03 -14740.242767  39515.559665   -623.954326    417.778263
PC04 -39611.408457  14456.680799   -482.399196   -211.014450
PC05  21972.241370  36007.361140    -37.927337   -183.124399
PC06 -20099.676591  21672.005698  30275.162195    912.210382
PC07 -20404.677478  37154.468362   1810.994985    -42.067792
PC08  -5356.661547  27916.184302 -30964.444335    161.446636
PC09   -600.096692  24644.959819  34438.026662    798.880044
PC10  -8655.497700  39463.755849 -12634.778980   -793.535097
PC11 -23031.563335    896.790697 -15721.106016    306.881418
PC12 -20434.768658 -16259.537492  10004.785877    710.846685
PC13   6772.959839  36391.959586 -19887.435616   -741.713029
PC14 -22839.948500   3383.277166 -15573.106496    591.485087
PC16 -16150.591044  22361.014261  31875.619584   -846.376208
PE01 -11764.416277  26567.383833   5664.658531   -614.411278
PE02  11742.141036 -26586.689890  -5625.435261     62.312653
PE03  16765.696973 -16874.934468 -17599.075593   -171.177235
PE04   4773.846184  16497.365796  24120.977286   -291.318327
PE05  28660.229821  -7362.849403   -705.673573   -479.959498
PE07 -23736.876957  -6383.633896 -16484.540221   -196.492195
PE08  -4998.418942 -16274.513324 -24203.879195   6348.765286
PE09  23757.647163   6109.194259  16568.432161   6425.710863
PE11  23092.425435  17161.706071   7003.767343   5687.475568
PE12  12138.206761  24132.063961 -12129.762279   6373.838493
PE13 -23116.858684 -17148.617459  -6879.218602    387.712992
PE14  -1366.241936 -15053.815626  17781.197984   -584.222696
PE15 -12541.233262 -24037.839201  11871.916650    908.829150
PE18    869.585712  21028.857737 -24920.547139   -681.320861
PE19 -18537.230091  16297.817279  16347.682866     -6.130330
PE21 -17695.632078  10812.928036  21118.051437   -536.258541
PE24  13339.719841  10994.726725 -24040.111265   6057.489151
PE25  17698.331493 -10731.961052 -21156.928522   1790.348112
PE26 -20269.149700   -229.607187 -21567.297814   4517.125693
PE27 -13186.358360 -11275.506867  23980.634769    460.586754
PE30   -995.641411 -26592.665222  12954.122849   4835.034166
PE31    943.916557  26697.349837 -12756.470255   -465.147858
PE33  -5387.747912  16877.640606 -23710.449214   -470.078630
PE36  20183.967871    194.489657  21657.477233    706.580442
PG01  16578.396611   3631.635633  20330.801754    -27.285647
PG02 -14567.679685 -21808.592715  -4073.647603   -224.155638
PG03  19384.003758  -6670.726472  16802.568963    187.122491
PG04  13256.996088 -12017.949719 -19614.874107    163.999707
PG05  -9724.462120 -12722.789826 -21283.142761      0.765637
PG06  -5512.102525 -24873.591122   7484.171666    193.257847
PG07  11107.913224 -11528.313176 -20854.008525    -33.347630
PG08  25683.116151   5555.125803  -4546.581227   -145.304438
PG09  19303.975774  -9393.476235 -15684.840240    402.616166
PG10  -9561.620538  23189.537421   8485.665067     33.045211
PG11  21829.879593   4782.349165  13633.897738   -596.902775
PG12 -19020.754799   4237.931925  17749.498015    238.291283
PG13 -20246.502119 -12905.884002 -11517.009830    -61.620467
PG14   6418.883246  15907.802370  20647.738584    -78.527204
PG15 -26341.318913  -3213.142765  -3806.485527   -310.371509
PG16   8672.707817  12357.165798 -21997.425661    -43.648360
PG17   3270.008345 -14543.981813  22387.397040     62.346146
PG18  17919.769741  12545.372326  14664.364628     57.237483
PG19  -5027.294192 -15271.983247  20821.996078   -313.437466
PG20 -14079.627577  22355.973558  -1835.759580    525.027124
PG21  -6039.696107  17282.432931 -18504.587517   -183.897151
PG22  17384.574785    893.604516  20277.923834   -708.347265
PG23  26285.142462  -1053.781400  -4654.699907   -184.236616
PG24 -18189.353768  -6414.515935  18241.031045    -66.713011
PG25 -19089.999985  16035.016040   8571.216721   -760.687136
PG26    861.436778  20214.176294 -17134.948639    213.002413
PG27  18746.918978  12011.038576 -14816.746784   -143.407158
PG28  11648.884423 -22384.352039   9044.739532    767.750430
PG29 -22718.704551   4746.834750 -12957.111915    190.335005
PG30   3941.440174 -21041.526840 -15572.986981   -113.262210
PG31   5807.057171  25008.279310   5816.926075     34.979623
PG32   -785.145909  15326.730265  21739.089487    -67.549879
PJ01 -28846.382357  30801.228577   6398.140049   -297.369973
PJ02 -26190.746201  27482.258364  23216.278075     -0.031558
PJ03 -30803.836012  16504.001418 -18915.524300      0.415231
PJ07 -25382.568949  33676.813104      0.698406      0.023141
PR01 -22016.651821  12594.448174   2798.037403     44.478860
PR02  -7509.708217  14073.306631  19932.107480    370.795968
PR03  10343.659356   6848.136004  22341.020663     -4.149879
PR04  22336.872821  -4784.359282  11389.281879    307.994787
PR05  21301.376869 -13041.543139  -5212.591209     28.980562
PR07 -10744.595906  -6550.679003 -22140.657983    -20.832850
PR08 -22090.557288   4333.263456 -11930.409435     17.539733
PR09    987.051706 -25378.972624   1945.800352     72.115216
PR10  -5824.974294 -18899.458270  16036.332760     50.869055
PR11 -11068.503103   -463.325113  22988.120896    -67.615387
PR13  -1618.058024  25461.263291     -6.511672    -24.191431
PR14   6224.596464  18828.605633 -16045.556055     39.393255
PR15  10796.642282   1496.989848 -23044.389812    102.224297
PR16   9007.238069 -17156.746363 -16678.086773      9.090229
PR17  17985.641230  16478.958774  -7401.199961    231.311472
PR18  21616.373096   9606.333495   9637.854130     -5.241829
PR19  13574.052866  -2087.570786  21493.210207    -33.160096
PR20  -3632.146565 -14173.678620  20883.298341   -379.531692
PR21 -18361.499710 -16372.969249   6777.471479    -50.704546
PR22 -20933.143861  -7916.357249 -12114.893352    -21.362981
PR23  -9224.125497   6195.877254 -22970.313046    230.853227
PR24   5584.524424  14851.701070 -20007.632505   -180.951119
PR26  -1360.992466 -12965.727913  21937.698937     -9.564977
EOF
